[{"OBJECT_NAME":"TIANMU-1 19","OBJECT_ID":"2023-208A","EPOCH":"2026-03-09T22:13:36.801696","MEAN_MOTION":15.2984143,"ECCENTRICITY":0.00039292,"INCLINATION":97.4383,"RA_OF_ASC_NODE":184.9132,"ARG_OF_PERICENTER":316.2611,"MEAN_ANOMALY":43.8317,"EPHEMERIS_TYPE":0,"CLASSIFICATION_TYPE":"U","NORAD_CAT_ID":58660,"ELEMENT_SET_NO":999,"REV_AT_EPOCH":12214,"BSTAR":0.00040995676,"MEAN_MOTION_DOT":0.00011779,"MEAN_MOTION_DDOT":0},{"OBJECT_NAME":"STARLINK-31371","OBJECT_ID":"2024-027K","EPOCH":"2026-03-09T22:31:29.379936","MEAN_MOTION":15.30189386,"ECCENTRICITY":0.00012762,"INCLINATION":53.1601,"RA_OF_ASC_NODE":308.6599,"ARG_OF_PERICENTER":63.5369,"MEAN_ANOMALY":296.5763,"EPHEMERIS_TYPE":0,"CLASSIFICATION_TYPE":"U","NORAD_CAT_ID":58940,"ELEMENT_SET_NO":999,"REV_AT_EPOCH":11736,"BSTAR":5.7336565e-5,"MEAN_MOTION_DOT":1.339e-5,"MEAN_MOTION_DDOT":0}]
